OBJECT_NAME,OBJECT_ID,EPOCH,MEAN_MOTION,ECCENTRICITY,INCLINATION,RA_OF_ASC_NODE,ARG_OF_PERICENTER,MEAN_ANOMALY,EPHEMERIS_TYPE,CLASSIFICATION_TYPE,NORAD_CAT_ID,ELEMENT_SET_NO,REV_AT_EPOCH,BSTAR,MEAN_MOTION_DOT,MEAN_MOTION_DDOT
HODOYOSHI-4,2014-033B,2026-06-26T18:48:42.443712,14.88147235,.0022103,97.5454,2.1432,274.5794,85.2899,0,U,40011,999,65023,.15937E-3,.1421E-4,0
DEIMOS-2,2014-033D,2026-06-26T16:41:24.097920,14.93750188,.000122,97.5829,51.8503,55.1679,304.9656,0,U,40013,999,63914,.98198E-4,.986E-5,0
HODOYOSHI-3,2014-033F,2026-06-26T09:55:51.659040,14.85405990,.003192,97.6425,340.0832,326.3944,33.5247,0,U,40015,999,64899,.12537E-3,.1036E-4,0
SPOT 7,2014-034A,2026-06-26T18:28:49.565568,14.60967329,.0001339,98.0629,240.0149,92.6044,267.5310,0,U,40053,999,63853,.17168E-3,.796E-5,0
SKYSAT-B,2014-037D,2026-06-26T11:19:36.872256,14.88049121,.0004258,98.3842,136.9663,241.5149,118.5637,0,U,40072,999,64734,.13518E-3,.1181E-4,0
WORLDVIEW-3 (WV-3),2014-048A,2026-06-26T17:38:52.353024,14.85036214,.0000211,97.8564,252.4364,21.1310,338.9914,0,U,40115,999,64332,.96633E-4,.772E-5,0
GAOFEN-2,2014-049A,2026-06-26T18:30:08.453952,14.80908399,.0006736,98.0109,241.9691,191.6881,168.4176,0,U,40118,999,64065,.82644E-4,.585E-5,0
YAOGAN-21,2014-053A,2026-06-26T17:36:19.793952,15.26507781,.0009628,97.1472,217.5597,65.7995,294.4249,0,U,40143,999,65641,.29884E-3,.7744E-4,0
YAOGAN-22,2014-063A,2026-06-26T16:36:34.879104,13.15531185,.0006556,100.7735,329.1235,164.3467,195.7847,0,U,40275,999,56106,.58005E-4,-.25E-6,0
ASNARO,2014-070A,2026-06-26T18:34:24.712896,15.19569913,.0006305,97.3449,253.6292,136.1501,224.0236,0,U,40298,999,64546,.41118E-3,.8688E-4,0
YAOGAN-24,2014-072A,2026-06-26T15:20:41.385696,14.76096616,.001329,98.1495,315.0578,231.5884,128.4133,0,U,40310,999,62511,.91593E-4,.579E-5,0
CBERS 4,2014-079A,2026-06-26T17:25:06.936672,14.35511659,.0001567,98.3532,234.2583,53.6027,306.5304,0,U,40336,999,60532,.74773E-4,.173E-5,0
YAOGAN-26,2014-088A,2026-06-26T18:26:13.743168,15.47719131,.0004897,97.0640,177.7542,44.5760,315.5885,0,U,40362,999,63918,.34665E-3,.17876E-3,0
SMAP,2015-003A,2026-06-26T17:18:08.705376,14.63374195,.0001431,98.1276,184.6804,98.3401,261.7964,0,U,40376,999,60901,.85533E-4,.395E-5,0
KOMPSAT-3A,2015-014A,2026-06-26T18:29:51.044352,15.54447551,.0057111,97.6882,169.8361,140.2875,220.2581,0,U,40536,999,62330,.39772E-3,.28027E-3,0
SENTINEL-2A,2015-028A,2026-06-26T17:24:16.141248,14.30818717,.000116,98.5684,252.4417,91.3719,268.7596,0,U,40697,999,57509,.13968E-3,.323E-5,0
GAOFEN-8,2015-030A,2026-06-26T19:06:02.615040,15.46301054,.000948,97.6907,11.7444,153.5940,206.5794,0,U,40701,999,61293,.55956E-3,.27588E-3,0
CARBONITE 1 (CBNT-1),2015-032D,2026-06-26T18:13:59.374272,14.83613669,.0012934,97.6510,355.4257,263.3673,96.6069,0,U,40718,999,59076,.21001E-3,.1683E-4,0
YAOGAN-27,2015-040A,2026-06-26T18:13:17.033952,13.16070988,.0007975,100.1153,163.7264,187.2013,172.8988,0,U,40878,999,51892,-.1618E-3,-.104E-5,0
GAOFEN-9 01,2015-047A,2026-06-26T17:05:03.986016,14.82900836,.0028845,97.6271,212.9737,107.9907,252.4455,0,U,40894,999,58160,.12117E-3,.938E-5,0
YAOGAN-28,2015-064A,2026-06-26T16:34:33.800736,15.27534330,.0011449,97.3080,315.7594,151.1257,209.0618,0,U,41026,999,59213,.23937E-3,.6386E-4,0
YAOGAN-29,2015-069A,2026-06-26T18:11:53.544768,14.83090861,.0002122,98.0028,206.4059,38.0706,322.0657,0,U,41038,999,57204,.32501E-4,.211E-5,0
KENT RIDGE 1,2015-077B,2026-06-26T09:31:22.248192,15.23182390,.0008186,14.9781,197.4940,8.5301,351.5159,0,U,41167,999,58250,.13611E-3,.4082E-4,0
GAOFEN-4,2015-083A,2026-06-25T21:39:16.789824,1.00271078,.00040511,0.3805,83.9226,113.8387,146.7998,0,U,41194,999,3861,0,-.324E-5,0
JASON-3,2016-002A,2026-06-26T17:04:31.772640,12.87622995,.0008404,66.0415,105.8124,272.3956,87.6101,0,U,41240,999,48847,-.38875E-4,-.72E-6,0
SENTINEL-3A,2016-011A,2026-06-26T18:06:05.567040,14.26735047,.0001437,98.6246,245.0004,96.8596,263.2748,0,U,41335,999,53942,.53149E-4,.85E-6,0
ZIYUAN 3-02 (ZY 3-02),2016-033A,2026-06-26T17:27:31.438944,15.21264993,.0012483,97.3839,253.3181,253.7984,106.1878,0,U,41556,999,55943,.22715E-3,.5017E-4,0
CARTOSAT-2C,2016-040A,2026-06-26T17:49:28.937856,15.19264713,.0010541,97.4484,237.5892,101.9957,258.2459,0,U,41599,999,55516,.25227E-3,.5258E-4,0
SKYSAT-C1,2016-040C,2026-06-26T00:13:04.045440,15.36441709,.00026289,96.9565,208.2510,39.9712,320.1726,0,U,41601,999,55922,.29477632E-3,.10408E-3,0
LAPAN-A3,2016-040E,2026-06-26T17:17:16.920672,15.33163675,.0009663,97.1487,173.5528,352.5383,7.5714,0,U,41603,999,55627,.12386E-3,.3898E-4,0
GAOFEN-3,2016-049A,2026-06-26T17:27:37.674432,14.42216023,.0001589,98.4013,185.3694,97.0306,263.1064,0,U,41727,999,52002,-.62282E-5,-.64E-6,0
